- 1 20580U 90037B   11084.75592949  .00000907  00000-0  56223-4 0  7354
- 2 20580  28.4705 201.4022 0003161 315.8152  44.2228 15.01226002947102
'2011-03-27':
- 1 20580U 90037B   11086.68389026  .00001052  00000-0  67275-4 0  7360
- 2 20580  28.4702 188.8101 0003225 339.6807  20.3762 15.01230235947399
'2011-03-30':
- 1 20580U 90037B   11089.34313701  .00001099  00000-0  70816-4 0  7370
- 2 20580  28.4694 171.4456 0003146   6.2292 353.8428 15.01235407947790
'2011-04-02':
- 1 20580U 90037B   11092.20181684  .00001296  00000-0  85800-4 0  7381
- 2 20580  28.4694 152.7777 0003084  36.0443 324.0622 15.01243048948223
'2011-04-03':
- 1 20580U 90037B   11093.19902206  .00001396  00000-0  93394-4 0  7390
- 2 20580  28.4694 146.2670 0003076  47.1977 312.8962 15.01246372948370
'2011-04-04':
- 1 20580U 90037B   11094.19622810  .00001540  00000-0  10435-3 0  7408
- 2 20580  28.4699 139.7548 0003048  60.6799 299.4236 15.01250390948523
'2011-04-06':
- 1 20580U 90037B   11096.19063293  .00001762  00000-0  12115-3 0  7418
- 2 20580  28.4694 126.7274 0003212  80.2314 279.8866 15.01258270948823
'2011-04-07':
- 1 20580U 90037B   11097.18782763  .00001628  00000-0  11100-3 0  7423
- 2 20580  28.4681 120.2080 0003163  99.6331 260.4775 15.01261249948972
'2011-04-09':
- 1 20580U 90037B   11099.18221562  .00001823  00000-0  12577-3 0  7437
- 2 20580  28.4691 107.1851 0003507 110.0281 250.0659 15.01268680949273
'2011-04-10':
- 1 20580U 90037B   11100.17940737  .00001799  00000-0  12391-3 0  7448
- 2 20580  28.4687 100.6738 0003545 118.1563 241.9340 15.01271698949420
'2011-04-11':
- 1 20580U 90037B   11101.24307644  .00001730  00000-0  11863-3 0  7450
- 2 20580  28.4688  93.7242 0003574 126.7983 233.2892 15.01274484949585
'2011-04-13':
- 1 20580U 90037B   11103.23744914  .00001578  00000-0  10714-3 0  7461
- 2 20580  28.4683  80.7005 0003489 147.4577 212.6114 15.01279103949881
'2011-04-15':
- 1 20580U 90037B   11105.09885943  .00001479  00000-0  99568-4 0  7471
- 2 20580  28.4689  68.5457 0003626 168.5029 191.5610 15.01283494950168
'2011-04-16':
- 1 20580U 90037B   11106.16251948  .00001456  00000-0  97808-4 0  7483
- 2 20580  28.4693  61.6004 0003693 180.6215 179.4373 15.01286098950323
'2011-04-19':
- 1 20580U 90037B   11109.15405170  .00001367  00000-0  91050-4 0  7498
- 2 20580  28.4696  42.0585 0003663 211.8262 148.2086 15.01292820950773
'2011-04-22':
- 1 20580U 90037B   11112.07909464  .00001237  00000-0  81141-4 0  7506
- 2 20580  28.4712  22.9514 0003555 241.7240 118.2888 15.01298410951217
'2011-04-25':
- 1 20580U 90037B   11115.13708698  .00001272  00000-0  83826-4 0  7525
- 2 20580  28.4719   2.9787 0003402 273.9578  86.0684 15.01305395951673
'2011-04-28':
- 1 20580U 90037B   11118.99279461  .00001299  00000-0  85816-4 0  7545
- 2 20580  28.4715 337.7902 0003416 316.5512  43.4871 15.01314156952259
'2011-04-29':
- 1 20580U 90037B   11119.98995651  .00001322  00000-0  87590-4 0  7550
- 2 20580  28.4714 331.2790 0003436 326.3771  33.6626 15.01316621952405
'2011-04-30':
- 1 20580U 90037B   11120.92064018  .00001355  00000-0  90098-4 0  7564
- 2 20580  28.4711 325.2015 0003452 336.7584  23.2871 15.01319071952544
'2011-05-02':
- 1 20580U 90037B   11122.25018607  .00001383  00000-0  92231-4 0  7578
- 2 20580  28.4713 316.5186 0003482 352.1745   7.8818 15.01322555952744
'2011-05-03':
- 1 20580U 90037B   11123.84563713  .00001993  00000-0  13844-3 0  7587
- 2 20580  28.4711 306.0920 0003234   8.7594 351.3362 15.01330296952981
'2011-05-05':
- 1 20580U 90037B   11125.70697983  .00001804  00000-0  12407-3 0  7597
- 2 20580  28.4708 293.9365 0003273  28.8442 331.2236 15.01335561953261
'2011-05-06':
- 1 20580U 90037B   11126.83708293  .00001663  00000-0  11338-3 0  7606
- 2 20580  28.4716 286.5665 0003297  41.7639 318.3020 15.01338046953436
'2011-05-09':
- 1 20580U 90037B   11129.56261560  .00001197  00000-0  78000-4 0  7613
- 2 20580  28.4704 268.7374 0003842  64.5560 295.5312 15.01342174953846
'2011-05-10':
- 1 20580U 90037B   11130.69271401  .00001345  00000-0  89279-4 0  7620
- 2 20580  28.4700 261.3714 0003581  79.0912 281.0072 15.01345527954019
'2011-05-11':
- 1 20580U 90037B   11131.68985533  .00001322  00000-0  87520-4 0  7631
- 2 20580  28.4700 254.8583 0003590  90.6325 269.4677 15.01347649954161
'2011-05-13':
- 1 20580U 90037B   11133.68413250  .00001223  00000-0  79991-4 0  7649
- 2 20580  28.4699 241.8342 0003494 113.5369 246.5525 15.01351127954460
'2011-05-14':
- 1 20580U 90037B   11134.68127036  .00001170  00000-0  75935-4 0  7650
- 2 20580  28.4700 235.3178 0003423 124.5290 235.5635 15.01352690954618
'2011-05-15':
- 1 20580U 90037B   11135.67840564  .00001068  00000-0  68191-4 0  7661
- 2 20580  28.4698 228.8055 0003652 137.1746 222.9108 15.01353873954760
'2011-05-18':
- 1 20580U 90037B   11138.47037934  .00000926  00000-0  57427-4 0  7674
- 2 20580  28.4697 210.5697 0003782 166.1084 193.9499 15.01357299955183
'2011-05-21':
- 1 20580U 90037B   11141.52824966  .00000829  00000-0  50076-4 0  7689
- 2 20580  28.4697 190.5929 0003629 197.1847 162.8577 15.01360918955644
'2011-05-24':
- 1 20580U 90037B   11144.25373681  .00000648  00000-0  36347-4 0  7690
- 2 20580  28.4697 172.7905 0003576 224.3693 135.6442 15.01362480956054
'2011-05-27':
- 1 20580U 90037B   11147.24512652  .00000545  00000-0  28585-4 0  7708
- 2 20580  28.4693 153.2495 0003337 256.1202 103.8907 15.01364093956507
'2011-05-29':
- 1 20580U 90037B   11149.23938621  .00001488  00000-0  10000-3 0  7717
- 2 20580  28.4688 140.2227 0003270 270.8930  89.1399 15.01367570956804
'2011-05-30':
- 1 20580U 90037B   11150.23651044  .00000919  00000-0  56931-4 0  7723
- 2 20580  28.4692 133.7068 0003168 285.6423  74.3770 15.01368519956955
'2011-05-31':
- 1 20580U 90037B   11151.16716261  .00000940  00000-0  58458-4 0  7730
- 2 20580  28.4690 127.6249 0003108 295.1545  64.8771 15.01370135957099
'2011-06-01':
- 1 20580U 90037B   11152.23076219  .00000817  00000-0  49136-4 0  7748
- 2 20580  28.4692 120.6850 0003093 308.8152  51.2073 15.01371121957250
'2011-06-02':
- 1 20580U 90037B   11153.22788893  .00000872  00000-0  53324-4 0  7752
- 2 20580  28.4690 114.1708 0003121 319.1299  40.9114 15.01372893957402
'2011-06-03':
- 1 20580U 90037B   11154.22501191  .00000918  00000-0  56791-4 0  7760
- 2 20580  28.4691 107.6555 0003127 330.3636  29.6819 15.01374647957557
'2011-06-06':
- 1 20580U 90037B   11157.14990257  .00000902  00000-0  55628-4 0  7771
- 2 20580  28.4697  88.5490 0002988   3.7142 356.3507 15.01378988957999
'2011-06-08':
- 1 20580U 90037B   11159.14414120  .00000933  00000-0  57954-4 0  7782
- 2 20580  28.4698  75.5244 0002924  24.1008 335.9773 15.01382238958296
'2011-06-10':
- 1 20580U 90037B   11161.13837474  .00001005  00000-0  63419-4 0  7790
- 2 20580  28.4701  62.4957 0003033  46.6795 313.4132 15.01386059958599
'2011-06-13':
- 1 20580U 90037B   11164.06324016  .00000944  00000-0  58779-4 0  7804
- 2 20580  28.4710  43.3904 0003276  78.9007 281.1900 15.01390413959035
'2011-06-16':
- 1 20580U 90037B   11167.05457208  .00000742  00000-0  43483-4 0  7819
- 2 20580  28.4720  23.8497 0003427 111.2522 248.8269 15.01392892959487
'2011-06-18':
- 1 20580U 90037B   11169.97942661  .00000698  00000-0  40101-4 0  7829
- 2 20580  28.4730   4.7412 0003545 140.6636 219.4218 15.01395869959920
'2011-06-21':
- 1 20580U 90037B   11172.77132387  .00000745  00000-0  43704-4 0  7844
- 2 20580  28.4728 346.5038 0003524 168.1964 191.8764 15.01399279960340
'2011-06-24':
- 1 20580U 90037B   11175.03142508  .00000775  00000-0  45906-4 0  7852
- 2 20580  28.4725 331.7433 0003535 193.2905 166.7641 15.01402175960680
'2011-06-26':
- 1 20580U 90037B   11177.82330943  .00000847  00000-0  51368-4 0  7863
- 2 20580  28.4725 313.5072 0003509 222.3983 137.6438 15.01406378961106
'2011-06-27':
- 1 20580U 90037B   11178.75393424  .00000851  00000-0  51666-4 0  7876
- 2 20580  28.4725 307.4268 0003448 231.6770 128.3526 15.01407684961245
'2011-06-28':
- 1 20580U 90037B   11179.75103328  .00000822  00000-0  49471-4 0  7889
- 2 20580  28.4726 300.9136 0003422 241.9555 118.0674 15.01408748961393
'2011-06-29':
- 1 20580U 90037B   11180.74813243  .00000769  00000-0  45480-4 0  7891
- 2 20580  28.4727 294.4017 0003480 252.1362 107.8827 15.01409579961549
'2011-06-30':
- 1 20580U 90037B   11181.74523141  .00000725  00000-0  42139-4 0  7909
- 2 20580  28.4723 287.8837 0003275 265.8685  94.1505 15.01410324961699
'2011-07-01':
- 1 20580U 90037B   11182.67585707  .00000664  00000-0  37524-4 0  7913
- 2 20580  28.4718 281.8037 0003253 275.5680  84.4520 15.01410789961838
'2011-07-03':
- 1 20580U 90037B   11184.27121456  .00000604  00000-0  32992-4 0  7927
- 2 20580  28.4716 271.3826 0003233 292.1478  67.8752 15.01411801962079
'2011-07-06':
- 1 20580U 90037B   11187.59487351  .00000584  00000-0  31455-4 0  7935
- 2 20580  28.4708 249.6712 0003231 329.0398  31.0007 15.01414384962571
'2011-07-08':
- 1 20580U 90037B   11189.25670124  .00000572  00000-0  30538-4 0  7941
- 2 20580  28.4705 238.8120 0003108 346.8204  13.2355 15.01415595962828
'2011-07-09':
- 1 20580U 90037B   11190.25379641  .00000306  00000-0  10391-4 0  7954
- 2 20580  28.4699 232.2972 0003065 359.0912   0.9668 15.01415561962976
'2011-07-11':
- 1 20580U 90037B   11192.24798881  .00000516  00000-0  26327-4 0  7966
- 2 20580  28.4705 219.2771 0003259  20.3805 339.6919 15.01417416963276
'2011-07-12':
- 1 20580U 90037B   11193.24508359  .00000531  00000-0  27481-4 0  7976
- 2 20580  28.4704 212.7631 0003297  32.0114 328.0702 15.01418305963420
'2011-07-15':
- 1 20580U 90037B   11196.23636361  .00000576  00000-0  30856-4 0  7983
- 2 20580  28.4697 193.2213 0003461  64.0767 296.0245 15.01420913963875
'2011-07-16':
- 1 20580U 90037B   11197.23345419  .00000577  00000-0  30933-4 0  7993
- 2 20580  28.4692 186.7059 0003467  75.0348 285.0649 15.01421676964029
'2011-07-17':
- 1 20580U 90037B   11198.23054475  .00000560  00000-0  29656-4 0  8008
- 2 20580  28.4688 180.1909 0003489  85.2272 274.8727 15.01422310964174
'2011-07-20':
